ONEWEB-0492             
1 54114U 22138B   25124.12825824  .00000105  00000+0  22962-3 0  9996
2 54114  87.9258  26.2854 0001688  83.0031 277.1294 13.19726205123757
ONEWEB-0495             
1 54115U 22138C   25123.95450653  .00000051  00000+0  94261-4 0  9993
2 54115  87.9258  26.3314 0001293  62.8068 297.3197 13.19725733122847
ONEWEB-0497             
1 54116U 22138D   25123.96713688  .00000133  00000+0  30095-3 0  9990
2 54116  87.9254  26.3031 0001776  77.8226 282.3106 13.19727693122838
ONEWEB-0499             
1 54117U 22138E   25123.79814086 -.00000018  00000+0 -76227-4 0  9998
2 54117  87.9258  26.3522 0001951  68.3505 291.7836 13.19726748122821
ONEWEB-0500             
1 54118U 22138F   25123.95293268  .00000054  00000+0  10178-3 0  9990
2 54118  87.9256  26.3076 0001834  80.8222 279.3118 13.19726599122851
ONEWEB-0501             
1 54119U 22138G   25123.75548593  .00000002  00000+0 -27310-4 0  9994
2 54119  87.9254  26.3407 0001525  68.1834 291.9460 13.19727976122808
ONEWEB-0502             
1 54120U 22138H   25123.96872591  .00000092  00000+0  19628-3 0  9997
2 54120  87.9252  26.2834 0001760  70.2215 289.9107 13.19727041122852
ONEWEB-0503             
1 54121U 22138J   25123.95767133  .00000065  00000+0  13125-3 0  9998
2 54121  87.9252  26.2907 0002124  73.6430 286.4936 13.19726741122842
